{
  "type": "FeatureCollection",
  "features": [
    {
      "type": "Feature",
      "properties": {
        "norad_id": 66396,
        "name": "STARLINK-35669",
        "group": "last-30-days",
        "lat": -21.70317681517785,
        "lon": 131.0940028188717,
        "alt_km": 420.5520252975057,
        "timestamp": "2025-12-06T11:28:09.784171+00:00",
        "meta_object_name": "STARLINK-35669",
        "meta_object_id": "2025-257S",
        "meta_epoch": "2025-12-05T14:27:24.793056",
        "meta_mean_motion": 15.49619062,
        "meta_eccentricity": 0.00015262,
        "meta_inclination": 53.1591,
        "meta_ra_of_asc_node": 297.9221,
        "meta_arg_of_pericenter": 110.2235,
        "meta_mean_anomaly": 249.8938,
        "meta_ephemeris_type": 0,
        "meta_classification_type": "U",
        "meta_norad_cat_id": 66396,
        "meta_element_set_no": 999,
        "meta_rev_at_epoch": 527,
        "meta_bstar": 0.0020340148,
        "meta_mean_motion_dot": 0.00115623,
        "meta_mean_motion_ddot": 0,
        "tle_line1": "1 66396U 25257S   25339.60237029  .00115623  00000+0  20340-2 0  9990",
        "tle_line2": "2 66396  53.1591 297.9221 0001526 110.2235 249.8938 15.49619062  5276"
      },
      "geometry": {
        "type": "Point",
        "coordinates": [
          131.0940028188717,
          -21.70317681517785
        ]
      }
    },
    {
      "type": "Feature",
      "properties": {
        "norad_id": 66397,
        "name": "STARLINK-35510",
        "group": "last-30-days",
        "lat": -11.73116065925815,
        "lon": 122.71515682023939,
        "alt_km": 437.61680723956124,
        "timestamp": "2025-12-06T11:28:09.784181+00:00",
        "meta_object_name": "STARLINK-35510",
        "meta_object_id": "2025-257T",
        "meta_epoch": "2025-12-05T22:00:03.000096",
        "meta_mean_motion": 15.46223058,
        "meta_eccentricity": 0.00012409,
        "meta_inclination": 53.1593,
        "meta_ra_of_asc_node": 296.4248,
        "meta_arg_of_pericenter": 107.167,
        "meta_mean_anomaly": 204.424,
        "meta_ephemeris_type": 0,
        "meta_classification_type": "U",
        "meta_norad_cat_id": 66397,
        "meta_element_set_no": 999,
        "meta_rev_at_epoch": 540,
        "meta_bstar": -0.046581775,
        "meta_mean_motion_dot": -0.02067968,
        "meta_mean_motion_ddot": 0,
        "tle_line1": "1 66397U 25257T   25339.91670139 -.02067968  00000+0 -46582-1 0  9995",
        "tle_line2": "2 66397  53.1593 296.4248 0001240 107.1670 204.4240 15.46223058  5404"
      },
      "geometry": {
        "type": "Point",
        "coordinates": [
          122.71515682023939,
          -11.73116065925815
        ]
      }
    },
    {
      "type": "Feature",
      "properties": {
        "norad_id": 66398,
        "name": "STARLINK-35642",
        "group": "last-30-days",
        "lat": -21.743505916008257,
        "lon": 131.1299454108684,
        "alt_km": 426.63706137259214,
        "timestamp": "2025-12-06T11:28:09.784192+00:00",
        "meta_object_name": "STARLINK-35642",
        "meta_object_id": "2025-257U",
        "meta_epoch": "2025-12-05T16:00:01.999584",
        "meta_mean_motion": 15.49649434,
        "meta_eccentricity": 9.953e-05,
        "meta_inclination": 53.1592,
        "meta_ra_of_asc_node": 297.6078,
        "meta_arg_of_pericenter": 83.9764,
        "meta_mean_anomaly": 278.0758,
        "meta_ephemeris_type": 0,
        "meta_classification_type": "U",
        "meta_norad_cat_id": 66398,
        "meta_element_set_no": 999,
        "meta_rev_at_epoch": 536,
        "meta_bstar": -0.020106016,
        "meta_mean_motion_dot": -0.01030261,
        "meta_mean_motion_ddot": 0,
        "tle_line1": "1 66398U 25257U   25339.66668981 -.01030261  00000+0 -20106-1 0  9999",
        "tle_line2": "2 66398  53.1592 297.6078 0000995  83.9764 278.0758 15.49649434  5368"
      },
      "geometry": {
        "type": "Point",
        "coordinates": [
          131.1299454108684,
          -21.743505916008257
        ]
      }
    },
    {
      "type": "Feature",
      "properties": {
        "norad_id": 66399,
        "name": "STARLINK-35657",
        "group": "last-30-days",
        "lat": -26.385160263071814,
        "lon": 135.55522170611047,
        "alt_km": 422.1316703672155,
        "timestamp": "2025-12-06T11:28:09.784203+00:00",
        "meta_object_name": "STARLINK-35657",
        "meta_object_id": "2025-257V",
        "meta_epoch": "2025-12-05T14:25:38.671392",
        "meta_mean_motion": 15.49385482,
        "meta_eccentricity": 0.00015494,
        "meta_inclination": 53.1593,
        "meta_ra_of_asc_node": 297.9151,
        "meta_arg_of_pericenter": 70.8404,
        "meta_mean_anomaly": 289.2773,
        "meta_ephemeris_type": 0,
        "meta_classification_type": "U",
        "meta_norad_cat_id": 66399,
        "meta_element_set_no": 999,
        "meta_rev_at_epoch": 527,
        "meta_bstar": 0.0027226255,
        "meta_mean_motion_dot": 0.00154418,
        "meta_mean_motion_ddot": 0,
        "tle_line1": "1 66399U 25257V   25339.60114203  .00154418  00000+0  27226-2 0  9996",
        "tle_line2": "2 66399  53.1593 297.9151 0001549  70.8404 289.2773 15.49385482  5278"
      },
      "geometry": {
        "type": "Point",
        "coordinates": [
          135.55522170611047,
          -26.385160263071814
        ]
      }
    },
    {
      "type": "Feature",
      "properties": {
        "norad_id": 66400,
        "name": "STARLINK-35667",
        "group": "last-30-days",
        "lat": -27.44779145797408,
        "lon": 136.63566101328598,
        "alt_km": 422.18028533536926,
        "timestamp": "2025-12-06T11:28:09.784226+00:00",
        "meta_object_name": "STARLINK-35667",
        "meta_object_id": "2025-257W",
        "meta_epoch": "2025-12-05T23:42:28.950048",
        "meta_mean_motion": 15.49298892,
        "meta_eccentricity": 0.00023266,
        "meta_inclination": 53.1592,
        "meta_ra_of_asc_node": 296.0611,
        "meta_arg_of_pericenter": 119.4836,
        "meta_mean_anomaly": 240.6405,
        "meta_ephemeris_type": 0,
        "meta_classification_type": "U",
        "meta_norad_cat_id": 66400,
        "meta_element_set_no": 999,
        "meta_rev_at_epoch": 533,
        "meta_bstar": 0.0022780673,
        "meta_mean_motion_dot": 0.00128308,
        "meta_mean_motion_ddot": 0,
        "tle_line1": "1 66400U 25257W   25339.98783507  .00128308  00000+0  22781-2 0  9999",
        "tle_line2": "2 66400  53.1592 296.0611 0002326 119.4836 240.6405 15.49298892  5332"
      },
      "geometry": {
        "type": "Point",
        "coordinates": [
          136.63566101328598,
          -27.44779145797408
        ]
      }
    },
    {
      "type": "Feature",
      "properties": {
        "norad_id": 66401,
        "name": "STARLINK-35668",
        "group": "last-30-days",
        "lat": -19.710094604481544,
        "lon": 129.31764758607383,
        "alt_km": 439.64426101668596,
        "timestamp": "2025-12-06T11:28:09.784246+00:00",
        "meta_object_name": "STARLINK-35668",
        "meta_object_id": "2025-257X",
        "meta_epoch": "2025-12-05T17:30:18.527040",
        "meta_mean_motion": 15.46513321,
        "meta_eccentricity": 0.00219476,
        "meta_inclination": 53.1594,
        "meta_ra_of_asc_node": 297.2908,
        "meta_arg_of_pericenter": 120.065,
        "meta_mean_anomaly": 240.2538,
        "meta_ephemeris_type": 0,
        "meta_classification_type": "U",
        "meta_norad_cat_id": 66401,
        "meta_element_set_no": 999,
        "meta_rev_at_epoch": 529,
        "meta_bstar": -0.055037874,
        "meta_mean_motion_dot": -0.02497787,
        "meta_mean_motion_ddot": 0,
        "tle_line1": "1 66401U 25257X   25339.72938110 -.02497787  00000+0 -55038-1 0  9998",
        "tle_line2": "2 66401  53.1594 297.2908 0021947 120.0650 240.2538 15.46513321  5291"
      },
      "geometry": {
        "type": "Point",
        "coordinates": [
          129.31764758607383,
          -19.710094604481544
        ]
      }
    },
    {
      "type": "Feature",
      "properties": {
        "norad_id": 66402,
        "name": "STARLINK-35644",
        "group": "last-30-days",
        "lat": -28.752033019503845,
        "lon": 138.00346017085693,
        "alt_km": 423.24665394080876,
        "timestamp": "2025-12-06T11:28:09.784270+00:00",
        "meta_object_name": "STARLINK-35644",
        "meta_object_id": "2025-257Y",
        "meta_epoch": "2025-12-05T23:42:00.131328",
        "meta_mean_motion": 15.49284624,
        "meta_eccentricity": 0.00015592,
        "meta_inclination": 53.1581,
        "meta_ra_of_asc_node": 296.0579,
        "meta_arg_of_pericenter": 62.3404,
        "meta_mean_anomaly": 297.7763,
        "meta_ephemeris_type": 0,
        "meta_classification_type": "U",
        "meta_norad_cat_id": 66402,
        "meta_element_set_no": 999,
        "meta_rev_at_epoch": 533,
        "meta_bstar": 0.0016709027,
        "meta_mean_motion_dot": 0.0009352,
        "meta_mean_motion_ddot": 0,
        "tle_line1": "1 66402U 25257Y   25339.98750152  .00093520  00000+0  16709-2 0  9991",
        "tle_line2": "2 66402  53.1581 296.0579 0001559  62.3404 297.7763 15.49284624  5337"
      },
      "geometry": {
        "type": "Point",
        "coordinates": [
          138.00346017085693,
          -28.752033019503845
        ]
      }
    }
  ]
}